satname,norad_id,inclination_deg,eccentricity,mean_motion_rev_per_day,perigee_km,apogee_km,l1,l2
STARLINK-1008,44714,53.0528,0.0001253,15.06394945,546.3593027129791,548.0947989441174,1 44714U 19074B   25257.42123699  .00001936  00000+0  14882-3 0  9992,2 44714  53.0528 257.9211 0001253  91.6717 268.4416 15.06394945322187
STARLINK-1010,44716,53.0521,0.001068,15.76533283,333.0963227380089,347.4468434715209,1 44716U 19074D   25257.16545938  .00092457  00000+0  56571-3 0  9998,2 44716  53.0521 211.5161 0010680  32.4519 327.7155 15.76533283322792
STARLINK-1011,44717,53.0515,0.0006416,15.66215324,365.41632410101374,374.07520726593975,1 44717U 19074E   25257.66668981  .00121944  00000+0  11481-2 0  9992,2 44717  53.0515 262.3762 0006416  23.6974 325.8386 15.66215324  5948
STARLINK-1012,44718,53.0538,0.0001275,15.06399617,546.3297496875639,548.0957138691674,1 44718U 19074F   25257.26640582  .00001431  00000+0  11496-3 0  9991,2 44718  53.0538 258.6162 0001275  86.3578 273.7557 15.06399617322158
STARLINK-1015,44721,53.044,0.0002093,15.95462462,285.6310759133112,288.4211131846896,1 44721U 19074J   25257.58335648  .00272411  40295-4  67513-3 0  9998,2 44721  53.0440 197.9298 0002093  30.0684 160.3063 15.95462462  6016
STARLINK-1017,44723,53.0577,0.0003468,15.10653468,531.8086881404306,536.6030891680002,1 44723U 19074L   25257.43723459  .00014107  00000+0  85896-3 0  9990,2 44723  53.0577 256.5138 0003468 357.8831   2.2145 15.10653468322207
STARLINK-1019,44724,53.054,9.65e-05,15.06390924,546.5710758905961,547.9076735309154,1 44724U 19074M   25257.26273896  .00000511  00000+0  53215-4 0  9992,2 44724  53.0540 258.6322 0000965  77.8952 282.2146 15.06390924322153
STARLINK-1020,44725,53.0533,0.0001335,15.0642635,546.2062769092317,548.0553234118743,1 44725U 19074N   25257.33459008  .00006915  00000+0  48233-3 0  9999,2 44725  53.0533 278.3089 0001335  90.7942 269.3200 15.06426350321889
STARLINK-1021,44726,53.0439,0.0002937,15.89682613,301.20971286774693,305.1343137821741,1 44726U 19074P   25257.58335648  .00212052  00000+0  68799-3 0  9990,2 44726  53.0439 203.6017 0002937  13.8367 338.8940 15.89682613  5893
STARLINK-1029,44734,53.0505,0.0007849,15.84182737,313.37064974944406,323.88322978208816,1 44734U 19074X   25257.58335648  .00287411  00000+0  12074-2 0  9994,2 44734  53.0505 127.1885 0007849  97.1065 251.8329 15.84182737  5999
STARLINK-1030,44735,53.037,0.0002394,16.10451847,244.01832248533356,247.18976969820142,1 44735U 19074Y   25255.22644846  .00677614  25760-3  68261-3 0  9999,2 44735  53.0370 232.0979 0002394 139.4954 220.6259 16.10451847322345
STARLINK-1031,44736,53.0551,0.00075,15.36709625,450.7216591442975,460.9726353651804,1 44736U 19074Z   25257.28323388  .00063539  00000+0  17410-2 0  9993,2 44736  53.0551 259.6843 0007500 350.1238   9.9615 15.36709625322153
STARLINK-1036,44741,53.0534,0.0001162,15.06400289,546.405946795534,548.0153975945514,1 44741U 19074AE  25257.03234646  .00000518  00000+0  53653-4 0  9999,2 44741  53.0534 279.6680 0001162  89.4918 270.6204 15.06400289321843
STARLINK-1039,44744,53.0528,0.0004627,15.09107052,535.726712588209,542.127763834249,1 44744U 19074AH  25257.37261698  .00016224  00000+0  10274-2 0  9997,2 44744  53.0528 297.5873 0004627 324.0631  36.0048 15.09107052321622
STARLINK-1042,44747,53.0474,0.0003035,15.40614023,442.2253535477257,446.36657035562985,1 44747U 19074AL  25256.16929004  .00013519  00000+0  33624-3 0  9997,2 44747  53.0474 220.5323 0003035  13.6081 346.5004 15.40614023322621
STARLINK-1043,44748,53.0543,0.0001025,15.06404547,546.4877752744569,547.9074688719811,1 44748U 19074AM  25257.40278704  .00000464  00000+0  50021-4 0  9996,2 44748  53.0543 298.0059 0001025  92.4112 267.6995 15.06404547321623
STARLINK-1046,44751,53.0532,0.0001346,15.06400523,546.2778033189215,548.1421067192123,1 44751U 19074AQ  25257.48387895  .00002895  00000+0  21319-3 0  9997,2 44751  53.0532 297.6418 0001346  88.8387 271.2756 15.06400523321635
STARLINK-1047,44752,53.0721,0.0004994,15.27869438,478.75650778117506,485.6085949490798,1 44752U 19074AR  25257.35549310  .00009083  00000+0  34169-3 0  9999,2 44752  53.0721 246.8892 0004994  40.5520 319.5850 15.27869438322341
STARLINK-1048,44753,53.0566,0.0001772,15.06382759,546.0372184960897,548.4915807521165,1 44753U 19074AS  25257.44334388 -.00001298  00000+0 -68251-4 0  9999,2 44753  53.0566 257.8208 0001772  77.2150 282.9037 15.06382759322184
STARLINK-1053,44758,53.0414,0.0003434,15.54565275,401.08783025837056,405.74540128168064,1 44758U 19074AX  25256.66694856  .00033213  00000+0  49941-3 0  9990,2 44758  53.0414 236.9975 0003434  55.8942 304.2393 15.54565275322427
STARLINK-1054,44759,53.046,0.001116,15.63170105,370.96622973519607,386.04705834869674,1 44759U 19074AY  25257.58335648  .00179804  00000+0  18904-2 0  9995,2 44759  53.0460 262.7079 0011160 350.2883 293.5786 15.63170105  5824
STARLINK-1056,44761,53.044,0.0011326,15.74796064,337.5967030248876,352.8264322002442,1 44761U 19074BA  25257.58335648  .00143597  00000+0  93966-3 0  9990,2 44761  53.0440 252.6961 0011326  15.5670 233.1609 15.74796064  5501
STARLINK-1057,44762,53.0429,0.0003506,15.91815631,294.8617114390545,299.54245920568246,1 44762U 19074BB  25257.58335648  .00272511  38925-4  81899-3 0  9994,2 44762  53.0429 224.3844 0003506  25.4659 356.4291 15.91815631  5904
STARLINK-1060,44765,53.0529,0.0001518,15.23605585,493.9324483355049,496.0191253775956,1 44765U 19074BE  25257.58335648  .01464343  00000+0  55241-1 0  9992,2 44765  53.0529 276.3295 0001518  47.9513 347.3391 15.23605585  5836
STARLINK-1063,44768,53.0541,0.000151,15.06395595,546.179328990881,548.2707883325975,1 44768U 19074BH  25257.53916995  .00003695  00000+0  26683-3 0  9998,2 44768  53.0541 297.3907 0001510  90.1182 269.9980 15.06395595321652
STARLINK-1067,44771,53.054,0.0001381,15.0641413,546.2118672065972,548.124636517161,1 44771U 19074BL  25257.39541048  .00005892  00000+0  41398-3 0  9990,2 44771  53.0540 298.0377 0001381  70.4967 289.6172 15.06414130321628
STARLINK-1068,44772,53.054,0.0001457,15.0638967,546.2341901836317,548.2522459791817,1 44772U 19074BM  25257.45255119  .00001651  00000+0  12975-3 0  9997,2 44772  53.0540 277.7804 0001457  85.4781 274.6374 15.06389670321901
STARLINK-1098,44917,53.0371,0.0005052,16.34419014,177.37740893466525,184.0044486739298,1 44917U 20001D   25256.28386707  .05498894  12254-4  75335-3 0  9990,2 44917  53.0371   1.7258 0005052 320.9894  39.0785 16.34419014313963
STARLINK-1112,44925,53.0552,0.0004817,15.45201129,427.5072997204097,434.067017254697,1 44925U 20001M   25257.57187115  .00018831  00000+0  39819-3 0  9996,2 44925  53.0552  29.3769 0004817 135.3321 224.8074 15.45201129313699
STARLINK-1114,44927,53.0568,0.0001344,15.06397611,546.2881120586189,548.1496477191331,1 44927U 20001P   25257.42490157 -.00000107  00000+0  11682-4 0  9992,2 44927  53.0568  57.9037 0001344  92.2219 267.8924 15.06397611313287
STARLINK-1123,44930,53.0545,0.0001354,15.06402147,546.2672863965372,548.142669004098,1 44930U 20001S   25257.43964176 -.00000248  00000+0  22779-5 0  9990,2 44930  53.0545  57.8369 0001354  92.6354 267.4790 15.06402147313286
STARLINK-1144,44933,53.0504,0.0010147,15.48821172,413.27515905854216,427.0716501936904,1 44933U 20001V   25257.52409909  .00107159  00000+0  19378-2 0  9997,2 44933  53.0504   8.2969 0010147 270.5854  89.3990 15.48821172315286
STARLINK-1071,44934,53.0346,0.0007804,16.22944464,206.42684535464196,216.71205918534451,1 44934U 20001W   25257.70075512  .01932951  11912-4  76522-3 0  9998,2 44934  53.0346 332.3881 0007804 348.5669  11.5191 16.22944464314496
STARLINK-1091,44940,53.0447,0.0004327,15.73310726,346.53148375124874,352.35353105695503,1 44940U 20001AC  25257.58335648  .00124762  00000+0  87558-3 0  9994,2 44940  53.0447 354.8204 0004327 272.7711  45.3308 15.73310726  6010
STARLINK-1094,44941,53.0566,0.000158,15.06396378,546.1284520427562,548.3168656949592,1 44941U 20001AD  25257.58524363  .00000941  00000+0  82045-4 0  9998,2 44941  53.0566  37.1805 0001580 132.7296 227.3826 15.06396378313585
STARLINK-1096,44942,52.9928,0.0002986,15.74366746,344.4258263745287,348.44174004626257,1 44942U 20001AE  25256.97864194  .00072582  00000+0  49167-3 0  9997,2 44942  52.9928 184.5546 0002986 108.0469 252.0874 15.74366746316496
STARLINK-1122,44949,53.0559,0.000105,15.06406896,546.4632633927195,547.9175821515018,1 44949U 20001AM  25257.60734497  .00001350  00000+0  10945-3 0  9994,2 44949  53.0559  37.0799 0001050  88.0656 272.0454 15.06406896313582
STARLINK-1066,44954,53.0409,7.92e-05,16.0783924,252.25229342290277,253.30263027365982,1 44954U 20001AS  25257.59355213  .00622047  20662-3  74256-3 0  9990,2 44954  53.0409 319.6229 0000792 343.8250  16.2757 16.07839240314617
STARLINK-1080,44961,53.0556,0.0001058,15.06410306,546.4472731770857,547.9126702483009,1 44961U 20001AZ  25257.60550554  .00004503  00000+0  32090-3 0  9996,2 44961  53.0556  17.0927 0001058  90.1045 270.0066 15.06410306313878
STARLINK-1090,44968,53.0566,0.0001276,15.06400803,546.3254226980644,548.092771021983,1 44968U 20001BG  25257.60920759  .00002549  00000+0  18996-3 0  9998,2 44968  53.0566  17.0784 0001276  81.2115 278.9019 15.06400803313874
STARLINK-1107,44972,53.0147,0.000763,15.54195979,399.3156816653309,409.6659717288712,1 44972U 20001BL  25257.41461540  .00052292  00000+0  79017-3 0  9991,2 44972  53.0147 310.7921 0007630  25.8542 334.2847 15.54195979314782
STARLINK-1132,45044,53.0558,0.0001282,15.0640757,546.3005303649379,548.076183786493,1 45044U 20006A   25257.50231173  .00002875  00000+0  21178-3 0  9991,2 45044  53.0558 337.5558 0001282  84.8092 275.3043 15.06407570310187
STARLINK-1131,45047,53.0567,0.0001372,15.06414689,546.2163869892029,548.1166902802033,1 45047U 20006D   25257.54476003 -.00000020  00000+0  17522-4 0  9991,2 45047  53.0567 357.9046 0001372  79.8037 280.3107 15.06414689309905
